{
  "norad_id": 65767,
  "name": "KUIPER-00145",
  "history": [
    {
      "epoch": "2026-03-28T20:48:26.205408Z",
      "apogee_km": 630.188253839684,
      "perigee_km": 629.07163625466,
      "latitude_deg": 4.425572255788005e-05,
      "longitude_deg": 174.91298480294344,
      "height_km": 630.4968658411212,
      "semi_major_axis_km": 7007.766945047171,
      "eccentricity": 7.967e-05,
      "inclination_deg": 51.9005,
      "raan_deg": 313.3034,
      "arg_perigee_deg": 102.5299,
      "mean_anomaly_deg": 257.5753,
      "mean_motion_rev_day": 14.79903123
    },
    {
      "epoch": "2026-03-29T00:02:55.576896Z",
      "apogee_km": 630.1578477377743,
      "perigee_km": 629.1024780030466,
      "latitude_deg": 5.951625302006318e-06,
      "longitude_deg": 125.5606503318258,
      "height_km": 630.7582926039443,
      "semi_major_axis_km": 7007.76716287041,
      "eccentricity": 7.53e-05,
      "inclination_deg": 51.901,
      "raan_deg": 312.7066,
      "arg_perigee_deg": 136.3719,
      "mean_anomaly_deg": 223.7303,
      "mean_motion_rev_day": 14.79903054
    },
    {
      "epoch": "2026-03-29T08:09:09.146016Z",
      "apogee_km": 630.0898323042302,
      "perigee_km": 629.1559782192544,
      "latitude_deg": -4.367946261402542e-05,
      "longitude_deg": 2.178163824815159,
      "height_km": 630.6120332484533,
      "semi_major_axis_km": 7007.759905261742,
      "eccentricity": 6.663e-05,
      "inclination_deg": 51.9009,
      "raan_deg": 311.2135,
      "arg_perigee_deg": 121.3628,
      "mean_anomaly_deg": 238.7399,
      "mean_motion_rev_day": 14.79905353
    }
  ]
}